1 01506U 65063A   22254.43971278 -.00000010  00000-0  15703-3 0  9999
2 01506  69.2343 166.7723 0785018 175.1636 302.3963 11.78652407456249
1 01506U 65063A   22254.85285256 -.00000004  00000-0  19518-3 0  9990
2 01506  69.2343 166.1477 0785003 174.8358 255.4093 11.78652437456290
1  1506U 65063A   22254.85285256 -.00000004  00000-0  19518-3 0  9990
2  1506  69.2343 166.1477 0785003 174.8358 255.4093 11.78652437456672
1 01506U 65063A   22255.45681928  .00000001  00000-0  22891-3 0  9997
2 01506  69.2343 165.2348 0784976 174.3568 298.1292 11.78652472456365
1  1506U 65063A   22256.21415810  .00000004  00000-0  24988-3 0  9999
2  1506  69.2343 164.0900 0784944 173.7556 271.6301 11.78652513456836
1 01506U 65063A   22256.48957888  .00000008  00000-0  27722-3 0  9997
2 01506  69.2343 163.6736 0784931 173.5371   0.2813 11.78652547456489
1 01506U 65063A   22257.23285111  .00000012  00000-0  30470-3 0  9993
2 01506  69.2343 162.5501 0784901 172.9474 274.0955 11.78652588456574
1  1506U 65063A   22257.23285111  .00000012  00000-0  30470-3 0  9993
2  1506  69.2343 162.5501 0784901 172.9474 274.0955 11.78652588456956
1 01506U 65063A   22258.25156351  .00000011  00000-0  29773-3 0  9992
2 01506  69.2342 161.0101 0784858 172.1387 276.6439 11.78652658456695
1  1506U 65063A   22258.92996854  .00000003  00000-0  24102-3 0  9998
2  1506  69.2342 159.9846 0784831 171.5997 275.2184 11.78652691457159
1 01506U 65063A   22259.19312740  .00000006  00000-0  26667-3 0  9995
2 01506  69.2342 159.5868 0784817 171.3909 311.8407 11.78652748456803
1 01506U 65063A   22259.86427171 -.00000002  00000-0  20649-3 0  9995
2 01506  69.2341 158.5723 0784784 170.8594 279.6057 11.78652800456887
1 01506U 65063A   22260.12443537 -.00000005  00000-0  18812-3 0  9992
2 01506  69.2341 158.1790 0784768 170.6534 303.5183 11.78652789456918
1  1506U 65063A   22260.12443537 -.00000005  00000-0  18812-3 0  9992
2  1506  69.2341 158.1790 0784768 170.6534 303.5183 11.78652789457290
1 01506U 65063A   22260.94972654 -.00000016  00000-0  11144-3 0  9992
2 01506  69.2340 156.9315 0784728 169.9988 205.3516 11.78652772457019
1 01506U 65063A   22261.15209122 -.00000015  00000-0  11421-3 0  9996
2 01506  69.2340 156.6256 0784719 169.8380 344.0155 11.78652795457032
1  1506U 65063A   22261.15209122 -.00000015  00000-0  11421-3 0  9996
2  1506  69.2340 156.6256 0784719 169.8380 344.0155 11.78652795457414
1 01506U 65063A   22261.89967340 -.00000020  00000-0  79147-4 0  9996
2 01506  69.2339 155.4955 0784680 169.2448 276.1184 11.78652829457124
1  1506U 65063A   22262.17120917 -.00000019  00000-0  91328-4 0  9992
2  1506  69.2339 155.0850 0784668 169.0289 348.2859 11.78652865457536
1 01506U 65063A   22262.42968024 -.00000025  00000-0  47252-4 0  9993
2 01506  69.2339 154.6942 0784655 168.8239   5.0173 11.78652848457180
1 01506U 65063A   22263.17263987 -.00000025  00000-0  44101-4 0  9992
2 01506  69.2337 153.5711 0784620 168.2341 277.5064 11.78652866457275
1  1506U 65063A   22263.17263987 -.00000025  00000-0  44101-4 0  9992
2  1506  69.2337 153.5711 0784620 168.2341 277.5064 11.78652866457657
1  1506U 65063A   22264.46583219 -.00000016  00000-0  11172-3 0  9999
2  1506  69.2335 151.6162 0784565 167.2062   4.7161 11.78652893457806
1 01506U 65063A   22264.93849554 -.00000009  00000-0  15710-3 0  9992
2 01506  69.2334 150.9017 0784543 166.8312 210.2975 11.78652928457485
1 01506U 65063A   22265.38548709 -.00000007  00000-0  17478-3 0  9991
2 01506  69.2334 150.2260 0784522 166.4760 306.9500 11.78652956457532
1  1506U 65063A   22265.88920125 -.00000004  00000-0  19478-3 0  9991
2  1506  69.2332 149.4645 0784496 166.0766 284.2844 11.78652985457978
1 01506U 65063A   22266.41786742  .00000002  00000-0  23441-3 0  9998
2 01506  69.2332 148.6653 0784474 165.6560   7.4953 11.78653016457658
1 01506U 65063A   22266.90769947  .00000007  00000-0  27411-3 0  9996
2 01506  69.2331 147.9248 0784452 165.2670 285.9264 11.78653042457717
1 01506U 65063A   22267.08402900  .00000011  00000-0  29558-3 0  9998
2 01506  69.2331 147.6582 0784442 165.1270 314.1190 11.78653055457738
1  1506U 65063A   22267.08402900  .00000011  00000-0  29558-3 0  9998
2  1506  69.2331 147.6582 0784442 165.1270 314.1190 11.78653055458111
1 01506U 65063A   22267.92880150  .00000019  00000-0  35685-3 0  9994
2 01506  69.2329 146.3811 0784403 164.4560 298.6161 11.78653104457837
1  1506U 65063A   22268.10234737  .00000022  00000-0  37528-3 0  9991
2  1506  69.2329 146.1188 0784394 164.3182 314.9974 11.78653131458239
1 01506U 65063A   22268.45471068  .00000022  00000-0  37642-3 0  9996
2 01506  69.2328 145.5861 0784376 164.0384  10.1282 11.78653159457898
1 01506U 65063A   22268.92678508  .00000027  00000-0  41005-3 0  9999
2 01506  69.2328 144.8724 0784354 163.6633 213.2116 11.78653224457958
1 01506U 65063A   22269.38779941  .00000022  00000-0  37888-3 0  9992
2 01506  69.2327 144.1754 0784329 163.2973   9.3653 11.78653251458005
1  1506U 65063A   22269.38779941  .00000022  00000-0  37888-3 0  9992
2  1506  69.2327 144.1754 0784329 163.2973   9.3653 11.78653251458386
1 01506U 65063A   22270.05439578  .00000020  00000-0  36363-3 0  9992
2 01506  69.2326 143.1677 0784301 162.7676 317.8352 11.78653292458087
1 01506U 65063A   22270.87879786  .00000020  00000-0  35847-3 0  9997
2 01506  69.2325 141.9214 0784261 162.1127 215.8989 11.78653357458185
1 01506U 65063A   22271.07278694  .00000018  00000-0  35122-3 0  9994
2 01506  69.2325 141.6281 0784257 161.9582 319.0246 11.78653371458205
1  1506U 65063A   22271.07278694  .00000018  00000-0  35122-3 0  9994
2  1506  69.2325 141.6281 0784257 161.9582 319.0246 11.78653371458586
1  1506U 65063A   22272.09917383  .00000011  00000-0  29740-3 0  9994
2  1506  69.2323 140.0764 0784208 161.1425 354.1416 11.78653473458703
1 01506U 65063A   22272.35766464  .00000002  00000-0  23119-3 0  9999
2 01506  69.2323 139.6856 0784202 160.9364  10.9583 11.78653450458350
1 01506U 65063A   22272.91502318 -.00000007  00000-0  17183-3 0  9997
2 01506  69.2322 138.8430 0784179 160.4933 215.9163 11.78653467458425
1  1506U 65063A   22273.10100994 -.00000008  00000-0  16253-3 0  9991
2  1506  69.2322 138.5618 0784166 160.3457 285.0865 11.78653486458828
1 01506U 65063A   22273.37580130 -.00000011  00000-0  13945-3 0  9993
2 01506  69.2321 138.1464 0784150 160.1273  11.0684 11.78653495458476
1 01506U 65063A   22273.93335955 -.00000012  00000-0  13300-3 0  9994
2 01506  69.2321 137.3034 0784130 159.6838 216.8741 11.78653525458549
1 01506U 65063A   22274.04292244 -.00000007  00000-0  16729-3 0  9992
2 01506  69.2321 137.1378 0784134 159.5960 321.7673 11.78653581458550
1  1506U 65063A   22274.79782528 -.00000010  00000-0  14870-3 0  9992
2  1506  69.2320 135.9965 0784107 158.9954 284.9371 11.78653643459020
1 01506U 65063A   22274.88810274 -.00000010  00000-0  14939-3 0  9998
2 01506  69.2320 135.8600 0784102 158.9236 307.9984 11.78653647458651
1 01506U 65063A   22275.32844601 -.00000010  00000-0  14759-3 0  9999
2 01506  69.2314 135.1940 0784089 158.5728  16.4417 11.78653462458704
1  1506U 65063A   22275.81652043 -.00000022  00000-0  64344-4 0  9999
2  1506  69.2317 134.4563 0784038 158.1872 287.4154 11.78653607459148
1 01506U 65063A   22275.88516058 -.00000021  00000-0  71689-4 0  9990
2 01506  69.2316 134.3526 0784035 158.1326 218.6661 11.78653609458775
1 01506U 65063A   22276.34576186 -.00000022  00000-0  64590-4 0  9994
2 01506  69.2315 133.6562 0784013 157.7663  13.0685 11.78653625458828
1  1506U 65063A   22277.01989381 -.00000013  00000-0  12439-3 0  9998
2  1506  69.2314 132.6370 0783984 157.2305 353.5140 11.78653666459281
1 01506U 65063A   22277.36383975 -.00000009  00000-0  15447-3 0  9990
2 01506  69.2313 132.1170 0783967 156.9569  12.9297 11.78653684458943
1 01506U 65063A   22277.83712508 -.00000006  00000-0  17910-3 0  9994
2 01506  69.2312 131.4014 0783948 156.5805 221.1523 11.78653685459004
1 01506U 65063A   22278.03851684 -.00000005  00000-0  18638-3 0  9993
2 01506  69.2312 131.0969 0783938 156.4204 355.6884 11.78653687459027
1  1506U 65063A   22278.03851684 -.00000005  00000-0  18638-3 0  9993
2  1506  69.2312 131.0969 0783938 156.4204 355.6884 11.78653687459409
1 01506U 65063A   22278.87518163  .00000007  00000-0  26661-3 0  9993
2 01506  69.2311 129.8319 0783898 155.7552 305.7866 11.78653782459126
1  1506U 65063A   22279.05759785 -.00000000  00000-0  21733-3 0  9990
2  1506  69.2311 129.5561 0783889 155.6103 359.8061 11.78653722459528
1 01506U 65063A   22279.31629677  .00000002  00000-0  23473-3 0  9999
2 01506  69.2310 129.1650 0783878 155.4042  17.5061 11.78653749459178
1 01506U 65063A   22279.87349848  .00000003  00000-0  24316-3 0  9997
2 01506  69.2310 128.3226 0783852 154.9612 221.7989 11.78653751459246
1 01506U 65063A   22280.07700948  .00000006  00000-0  25959-3 0  9990
2 01506  69.2310 128.0149 0783841 154.7994   5.3276 11.78653776459260
1  1506U 65063A   22280.07700948  .00000006  00000-0  25959-3 0  9990
2  1506  69.2310 128.0149 0783841 154.7994   5.3276 11.78653776459642
1 01506U 65063A   22280.91268359  .00000011  00000-0  29849-3 0  9996
2 01506  69.2309 126.7515 0783807 154.1348 311.2220 11.78653803459369
1  1506U 65063A   22281.07822060  .00000017  00000-0  33883-3 0  9998
2  1506  69.2309 126.5011 0783799 154.0031 293.6216 11.78653862459763
1 01506U 65063A   22281.35243103  .00000016  00000-0  33237-3 0  9996
2 01506  69.2309 126.0865 0783785 153.7850  17.1390 11.78653874459412
1 01506U 65063A   22281.82522471  .00000021  00000-0  36353-3 0  9994
2 01506  69.2309 125.3717 0783760 153.4092 223.2760 11.78653937459475
1  1506U 65063A   22282.50357378  .00000005  00000-0  25232-3 0  9998
2  1506  69.2308 124.3461 0783734 152.8696 221.6166 11.78653911459938
1 01506U 65063A   22282.84354907  .00000001  00000-0  22631-3 0  9996
2 01506  69.2308 123.8321 0783721 152.5993 224.1847 11.78653919459594
1 01506U 65063A   22283.30400177 -.00000005  00000-0  18299-3 0  9999
2 01506  69.2308 123.1359 0783702 152.2329  17.9575 11.78653926459647
